[{"OBJECT_NAME":"STARLINK-34764","OBJECT_ID":"2025-167W","EPOCH":"2026-03-09T06:07:12.575424","MEAN_MOTION":15.30188955,"ECCENTRICITY":0.00010693,"INCLINATION":53.1607,"RA_OF_ASC_NODE":28.6505,"ARG_OF_PERICENTER":83.1773,"MEAN_ANOMALY":276.9349,"EPHEMERIS_TYPE":0,"CLASSIFICATION_TYPE":"U","NORAD_CAT_ID":65098,"ELEMENT_SET_NO":999,"REV_AT_EPOCH":3341,"BSTAR":0.00072527932,"MEAN_MOTION_DOT":0.00021175,"MEAN_MOTION_DDOT":0},{"OBJECT_NAME":"KUIPER-00175","OBJECT_ID":"2025-301C","EPOCH":"2026-03-09T23:30:37.840032","MEAN_MOTION":15.30996371,"ECCENTRICITY":0.00022792,"INCLINATION":51.8781,"RA_OF_ASC_NODE":63.6978,"ARG_OF_PERICENTER":50.5695,"MEAN_ANOMALY":309.549,"EPHEMERIS_TYPE":0,"CLASSIFICATION_TYPE":"U","NORAD_CAT_ID":67135,"ELEMENT_SET_NO":999,"REV_AT_EPOCH":1385,"BSTAR":0.00066732304,"MEAN_MOTION_DOT":0.00019968,"MEAN_MOTION_DDOT":0}]
